{
 "type": "FeatureCollection",
 "features": [
  {
   "type": "Feature",
   "geometry": {
    "type": "Point",
    "coordinates": [
     -87.669147,
     41.857908
    ]
   },
   "properties": {
    "station_id": "40830",
    "station_name": "18th",
    "descriptive_name": "18th (Pink Line)",
    "lines": "Pink",
    "line_count": 1,
    "ada": "Yes"
   }
  },
  {
   "type": "Feature",
   "geometry": {
    "type": "Point",
    "coordinates": [
     -87.625826,
     41.831677
    ]
   },
   "properties": {
    "station_id": "41120",
    "station_name": "35th-Bronzeville-IIT",
    "descriptive_name": "35th-Bronzeville-IIT (Green Line)",
    "lines": "Green",
    "line_count": 1,
    "ada": "Yes"
   }
  },
  {
   "type": "Feature",
   "geometry": {
    "type": "Point",
    "coordinates": [
     -87.680622,
     41.829353
    ]
   },
   "properties": {
    "station_id": "40120",
    "station_name": "35th/Archer",
    "descriptive_name": "35th/Archer (Orange Line)",
    "lines": "Orange",
    "line_count": 1,
    "ada": "Yes"
   }
  },
  {
   "type": "Feature",
   "geometry": {
    "type": "Point",
    "coordinates": [
     -87.619021,
     41.816462
    ]
   },
   "properties": {
    "station_id": "41270",
    "station_name": "43rd",
    "descriptive_name": "43rd (Green Line)",
    "lines": "Green",
    "line_count": 1,
    "ada": "Yes"
   }
  },
  {
   "type": "Feature",
   "geometry": {
    "type": "Point",
    "coordinates": [
     -87.618826,
     41.809209
    ]
   },
   "properties": {
    "station_id": "41080",
    "station_name": "47th",
    "descriptive_name": "47th (Green Line)",
    "lines": "Green",
    "line_count": 1,
    "ada": "Yes"
   }
  },
  {
   "type": "Feature",
   "geometry": {
    "type": "Point",
    "coordinates": [
     -87.63094,
     41.810318
    ]
   },
   "properties": {
    "station_id": "41230",
    "station_name": "47th",
    "descriptive_name": "47th (Red Line)",
    "lines": "Red",
    "line_count": 1,
    "ada": "Yes"
   }
  },
  {
   "type": "Feature",
   "geometry": {
    "type": "Point",
    "coordinates": [
     -87.618487,
     41.80209
    ]
   },
   "properties": {
    "station_id": "40130",
    "station_name": "51st",
    "descriptive_name": "51st (Green Line)",
    "lines": "Green",
    "line_count": 1,
    "ada": "Yes"
   }
  },
  {
   "type": "Feature",
   "geometry": {
    "type": "Point",
    "coordinates": [
     -87.756692,
     41.851773
    ]
   },
   "properties": {
    "station_id": "40580",
    "station_name": "54th/Cermak",
    "descriptive_name": "54th/Cermak (Pink Line)",
    "lines": "Pink",
    "line_count": 1,
    "ada": "Yes"
   }
  },
  {
   "type": "Feature",
   "geometry": {
    "type": "Point",
    "coordinates": [
     -87.630952,
     41.780536
    ]
   },
   "properties": {
    "station_id": "40910",
    "station_name": "63rd",
    "descriptive_name": "63rd (Red Line)",
    "lines": "Red",
    "line_count": 1,
    "ada": "Yes"
   }
  },
  {
   "type": "Feature",
   "geometry": {
    "type": "Point",
    "coordinates": [
     -87.625724,
     41.768367
    ]
   },
   "properties": {
    "station_id": "40990",
    "station_name": "69th",
    "descriptive_name": "69th (Red Line)",
    "lines": "Red",
    "line_count": 1,
    "ada": "Yes"
   }
  },
  {
   "type": "Feature",
   "geometry": {
    "type": "Point",
    "coordinates": [
     -87.625112,
     41.750419
    ]
   },
   "properties": {
    "station_id": "40240",
    "station_name": "79th",
    "descriptive_name": "79th (Red Line)",
    "lines": "Red",
    "line_count": 1,
    "ada": "Yes"
   }
  },
  {
   "type": "Feature",
   "geometry": {
    "type": "Point",
    "coordinates": [
     -87.624717,
     41.735372
    ]
   },
   "properties": {
    "station_id": "41430",
    "station_name": "87th",
    "descriptive_name": "87th (Red Line)",
    "lines": "Red",
    "line_count": 1,
    "ada": "Yes"
   }
  },
  {
   "type": "Feature",
   "geometry": {
    "type": "Point",
    "coordinates": [
     -87.624342,
     41.722377
    ]
   },
   "properties": {
    "station_id": "40450",
    "station_name": "95th/Dan Ryan",
    "descriptive_name": "95th/Dan Ryan (Red Line)",
    "lines": "Red",
    "line_count": 1,
    "ada": "Yes"
   }
  },
  {
   "type": "Feature",
   "geometry": {
    "type": "Point",
    "coordinates": [
     -87.626037,
     41.879507
    ]
   },
   "properties": {
    "station_id": "40680",
    "station_name": "Adams/Wabash",
    "descriptive_name": "Adams/Wabash (Brown, Green, Orange, Pink & Purple lines)",
    "lines": "Green, Brown, Purple, Pink, Orange",
    "line_count": 5,
    "ada": "No"
   }
  },
  {
   "type": "Feature",
   "geometry": {
    "type": "Point",
    "coordinates": [
     -87.71906,
     41.94738
    ]
   },
   "properties": {
    "station_id": "41240",
    "station_name": "Addison",
    "descriptive_name": "Addison (Blue Line)",
    "lines": "Blue",
    "line_count": 1,
    "ada": "Yes"
   }
  },
  {
   "type": "Feature",
   "geometry": {
    "type": "Point",
    "coordinates": [
     -87.653626,
     41.947428
    ]
   },
   "properties": {
    "station_id": "41420",
    "station_name": "Addison",
    "descriptive_name": "Addison (Red Line)",
    "lines": "Red",
    "line_count": 1,
    "ada": "Yes"
   }
  },
  {
   "type": "Feature",
   "geometry": {
    "type": "Point",
    "coordinates": [
     -87.674642,
     41.947028
    ]
   },
   "properties": {
    "station_id": "41440",
    "station_name": "Addison",
    "descriptive_name": "Addison (Brown Line)",
    "lines": "Brown",
    "line_count": 1,
    "ada": "Yes"
   }
  },
  {
   "type": "Feature",
   "geometry": {
    "type": "Point",
    "coordinates": [
     -87.65853,
     41.973453
    ]
   },
   "properties": {
    "station_id": "41200",
    "station_name": "Argyle",
    "descriptive_name": "Argyle (Red Line)",
    "lines": "Red",
    "line_count": 1,
    "ada": "Yes"
   }
  },
  {
   "type": "Feature",
   "geometry": {
    "type": "Point",
    "coordinates": [
     -87.652644,
     41.918217
    ]
   },
   "properties": {
    "station_id": "40660",
    "station_name": "Armitage",
    "descriptive_name": "Armitage (Brown & Purple lines)",
    "lines": "Brown, Purple",
    "line_count": 2,
    "ada": "Yes"
   }
  },
  {
   "type": "Feature",
   "geometry": {
    "type": "Point",
    "coordinates": [
     -87.666969,
     41.885269
    ]
   },
   "properties": {
    "station_id": "40170",
    "station_name": "Ashland",
    "descriptive_name": "Ashland (Green & Pink lines)",
    "lines": "Green, Pink",
    "line_count": 2,
    "ada": "Yes"
   }
  },
  {
   "type": "Feature",
   "geometry": {
    "type": "Point",
    "coordinates": [
     -87.665317,
     41.839234
    ]
   },
   "properties": {
    "station_id": "41060",
    "station_name": "Ashland",
    "descriptive_name": "Ashland (Orange Line)",
    "lines": "Orange",
    "line_count": 1,
    "ada": "Yes"
   }
  },
  {
   "type": "Feature",
   "geometry": {
    "type": "Point",
    "coordinates": [
     -87.663766,
     41.77886
    ]
   },
   "properties": {
    "station_id": "40290",
    "station_name": "Ashland/63rd",
    "descriptive_name": "Ashland/63rd (Green Line)",
    "lines": "Green",
    "line_count": 1,
    "ada": "Yes"
   }
  },
  {
   "type": "Feature",
   "geometry": {
    "type": "Point",
    "coordinates": [
     -87.776812,
     41.870851
    ]
   },
   "properties": {
    "station_id": "40010",
    "station_name": "Austin",
    "descriptive_name": "Austin (Blue Line)",
    "lines": "Blue",
    "line_count": 1,
    "ada": "No"
   }
  },
  {
   "type": "Feature",
   "geometry": {
    "type": "Point",
    "coordinates": [
     -87.774135,
     41.887293
    ]
   },
   "properties": {
    "station_id": "41260",
    "station_name": "Austin",
    "descriptive_name": "Austin (Green Line)",
    "lines": "Green",
    "line_count": 1,
    "ada": "No"
   }
  },
  {
   "type": "Feature",
   "geometry": {
    "type": "Point",
    "coordinates": [
     -87.65338,
     41.939751
    ]
   },
   "properties": {
    "station_id": "41320",
    "station_name": "Belmont",
    "descriptive_name": "Belmont (Red, Brown & Purple lines)",
    "lines": "Red, Brown, Purple",
    "line_count": 3,
    "ada": "Yes"
   }
  },
  {
   "type": "Feature",
   "geometry": {
    "type": "Point",
    "coordinates": [
     -87.712359,
     41.938132
    ]
   },
   "properties": {
    "station_id": "40060",
    "station_name": "Belmont",
    "descriptive_name": "Belmont (Blue Line)",
    "lines": "Blue",
    "line_count": 1,
    "ada": "No"
   }
  },
  {
   "type": "Feature",
   "geometry": {
    "type": "Point",
    "coordinates": [
     -87.658668,
     41.977984
    ]
   },
   "properties": {
    "station_id": "40340",
    "station_name": "Berwyn",
    "descriptive_name": "Berwyn (Red Line)",
    "lines": "Red",
    "line_count": 1,
    "ada": "Yes"
   }
  },
  {
   "type": "Feature",
   "geometry": {
    "type": "Point",
    "coordinates": [
     -87.65884,
     41.983504
    ]
   },
   "properties": {
    "station_id": "41380",
    "station_name": "Bryn Mawr",
    "descriptive_name": "Bryn Mawr (Red Line)",
    "lines": "Red",
    "line_count": 1,
    "ada": "Yes"
   }
  },
  {
   "type": "Feature",
   "geometry": {
    "type": "Point",
    "coordinates": [
     -87.696234,
     41.88422
    ]
   },
   "properties": {
    "station_id": "41360",
    "station_name": "California",
    "descriptive_name": "California (Green Line)",
    "lines": "Green",
    "line_count": 1,
    "ada": "Yes"
   }
  },
  {
   "type": "Feature",
   "geometry": {
    "type": "Point",
    "coordinates": [
     -87.69689,
     41.921939
    ]
   },
   "properties": {
    "station_id": "40570",
    "station_name": "California",
    "descriptive_name": "California (Blue Line)",
    "lines": "Blue",
    "line_count": 1,
    "ada": "No"
   }
  },
  {
   "type": "Feature",
   "geometry": {
    "type": "Point",
    "coordinates": [
     -87.694774,
     41.854109
    ]
   },
   "properties": {
    "station_id": "40440",
    "station_name": "California",
    "descriptive_name": "California (Pink Line)",
    "lines": "Pink",
    "line_count": 1,
    "ada": "Yes"
   }
  },
  {
   "type": "Feature",
   "geometry": {
    "type": "Point",
    "coordinates": [
     -87.685617,
     42.063987
    ]
   },
   "properties": {
    "station_id": "41250",
    "station_name": "Central",
    "descriptive_name": "Central (Purple Line)",
    "lines": "Purple",
    "line_count": 1,
    "ada": "No"
   }
  },
  {
   "type": "Feature",
   "geometry": {
    "type": "Point",
    "coordinates": [
     -87.76565,
     41.887389
    ]
   },
   "properties": {
    "station_id": "40280",
    "station_name": "Central",
    "descriptive_name": "Central (Green Line)",
    "lines": "Green",
    "line_count": 1,
    "ada": "Yes"
   }
  },
  {
   "type": "Feature",
   "geometry": {
    "type": "Point",
    "coordinates": [
     -87.714842,
     41.853839
    ]
   },
   "properties": {
    "station_id": "40780",
    "station_name": "Central Park",
    "descriptive_name": "Central Park (Pink Line)",
    "lines": "Pink",
    "line_count": 1,
    "ada": "Yes"
   }
  },
  {
   "type": "Feature",
   "geometry": {
    "type": "Point",
    "coordinates": [
     -87.630968,
     41.853206
    ]
   },
   "properties": {
    "station_id": "41000",
    "station_name": "Cermak-Chinatown",
    "descriptive_name": "Cermak-Chinatown (Red Line)",
    "lines": "Red",
    "line_count": 1,
    "ada": "Yes"
   }
  },
  {
   "type": "Feature",
   "geometry": {
    "type": "Point",
    "coordinates": [
     -87.626402,
     41.853115
    ]
   },
   "properties": {
    "station_id": "41690",
    "station_name": "Cermak-McCormick Place",
    "descriptive_name": "Cermak-McCormick Place (Green Line)",
    "lines": "Green",
    "line_count": 1,
    "ada": "Yes"
   }
  },
  {
   "type": "Feature",
   "geometry": {
    "type": "Point",
    "coordinates": [
     -87.628176,
     41.896671
    ]
   },
   "properties": {
    "station_id": "41450",
    "station_name": "Chicago",
    "descriptive_name": "Chicago (Red Line)",
    "lines": "Red",
    "line_count": 1,
    "ada": "Yes"
   }
  },
  {
   "type": "Feature",
   "geometry": {
    "type": "Point",
    "coordinates": [
     -87.655214,
     41.896075
    ]
   },
   "properties": {
    "station_id": "41410",
    "station_name": "Chicago",
    "descriptive_name": "Chicago (Blue Line)",
    "lines": "Blue",
    "line_count": 1,
    "ada": "No"
   }
  },
  {
   "type": "Feature",
   "geometry": {
    "type": "Point",
    "coordinates": [
     -87.635924,
     41.89681
    ]
   },
   "properties": {
    "station_id": "40710",
    "station_name": "Chicago",
    "descriptive_name": "Chicago (Brown & Purple lines)",
    "lines": "Brown, Purple",
    "line_count": 2,
    "ada": "Yes"
   }
  },
  {
   "type": "Feature",
   "geometry": {
    "type": "Point",
    "coordinates": [
     -87.745154,
     41.871574
    ]
   },
   "properties": {
    "station_id": "40970",
    "station_name": "Cicero",
    "descriptive_name": "Cicero (Blue Line)",
    "lines": "Blue",
    "line_count": 1,
    "ada": "No"
   }
  },
  {
   "type": "Feature",
   "geometry": {
    "type": "Point",
    "coordinates": [
     -87.745336,
     41.85182
    ]
   },
   "properties": {
    "station_id": "40420",
    "station_name": "Cicero",
    "descriptive_name": "Cicero (Pink Line)",
    "lines": "Pink",
    "line_count": 1,
    "ada": "Yes"
   }
  },
  {
   "type": "Feature",
   "geometry": {
    "type": "Point",
    "coordinates": [
     -87.744698,
     41.886519
    ]
   },
   "properties": {
    "station_id": "40480",
    "station_name": "Cicero",
    "descriptive_name": "Cicero (Green Line)",
    "lines": "Green",
    "line_count": 1,
    "ada": "Yes"
   }
  },
  {
   "type": "Feature",
   "geometry": {
    "type": "Point",
    "coordinates": [
     -87.631412,
     41.90392
    ]
   },
   "properties": {
    "station_id": "40630",
    "station_name": "Clark/Division",
    "descriptive_name": "Clark/Division (Red Line)",
    "lines": "Red",
    "line_count": 1,
    "ada": "Yes"
   }
  },
  {
   "type": "Feature",
   "geometry": {
    "type": "Point",
    "coordinates": [
     -87.630886,
     41.885737
    ]
   },
   "properties": {
    "station_id": "40380",
    "station_name": "Clark/Lake",
    "descriptive_name": "Clark/Lake (Blue, Brown, Green, Orange, Purple & Pink lines)",
    "lines": "Blue, Green, Brown, Purple, Pink, Orange",
    "line_count": 6,
    "ada": "Yes"
   }
  },
  {
   "type": "Feature",
   "geometry": {
    "type": "Point",
    "coordinates": [
     -87.640984,
     41.875539
    ]
   },
   "properties": {
    "station_id": "40430",
    "station_name": "Clinton",
    "descriptive_name": "Clinton (Blue Line)",
    "lines": "Blue",
    "line_count": 1,
    "ada": "No"
   }
  },
  {
   "type": "Feature",
   "geometry": {
    "type": "Point",
    "coordinates": [
     -87.641782,
     41.885678
    ]
   },
   "properties": {
    "station_id": "41160",
    "station_name": "Clinton",
    "descriptive_name": "Clinton (Green & Pink lines)",
    "lines": "Green, Pink",
    "line_count": 2,
    "ada": "Yes"
   }
  },
  {
   "type": "Feature",
   "geometry": {
    "type": "Point",
    "coordinates": [
     -87.716523,
     41.884904
    ]
   },
   "properties": {
    "station_id": "41670",
    "station_name": "Conservatory",
    "descriptive_name": "Conservatory (Green Line)",
    "lines": "Green",
    "line_count": 1,
    "ada": "Yes"
   }
  },
  {
   "type": "Feature",
   "geometry": {
    "type": "Point",
    "coordinates": [
     -87.605857,
     41.780309
    ]
   },
   "properties": {
    "station_id": "40720",
    "station_name": "Cottage Grove",
    "descriptive_name": "Cottage Grove (Green Line)",
    "lines": "Green",
    "line_count": 1,
    "ada": "Yes"
   }
  },
  {
   "type": "Feature",
   "geometry": {
    "type": "Point",
    "coordinates": [
     -87.838028,
     41.984246
    ]
   },
   "properties": {
    "station_id": "40230",
    "station_name": "Cumberland",
    "descriptive_name": "Cumberland (Blue Line)",
    "lines": "Blue",
    "line_count": 1,
    "ada": "Yes"
   }
  },
  {
   "type": "Feature",
   "geometry": {
    "type": "Point",
    "coordinates": [
     -87.678639,
     41.966286
    ]
   },
   "properties": {
    "station_id": "40090",
    "station_name": "Damen",
    "descriptive_name": "Damen (Brown Line)",
    "lines": "Brown",
    "line_count": 1,
    "ada": "Yes"
   }
  },
  {
   "type": "Feature",
   "geometry": {
    "type": "Point",
    "coordinates": [
     -87.675975,
     41.854517
    ]
   },
   "properties": {
    "station_id": "40210",
    "station_name": "Damen",
    "descriptive_name": "Damen (Pink Line)",
    "lines": "Pink",
    "line_count": 1,
    "ada": "Yes"
   }
  },
  {
   "type": "Feature",
   "geometry": {
    "type": "Point",
    "coordinates": [
     -87.677437,
     41.909744
    ]
   },
   "properties": {
    "station_id": "40590",
    "station_name": "Damen",
    "descriptive_name": "Damen (Blue Line)",
    "lines": "Blue",
    "line_count": 1,
    "ada": "No"
   }
  },
  {
   "type": "Feature",
   "geometry": {
    "type": "Point",
    "coordinates": [
     -87.676891,
     41.884974
    ]
   },
   "properties": {
    "station_id": "41710",
    "station_name": "Damen",
    "descriptive_name": "Damen (Green Line)",
    "lines": "Green",
    "line_count": 1,
    "ada": "Yes"
   }
  },
  {
   "type": "Feature",
   "geometry": {
    "type": "Point",
    "coordinates": [
     -87.683543,
     42.04771
    ]
   },
   "properties": {
    "station_id": "40050",
    "station_name": "Davis",
    "descriptive_name": "Davis (Purple Line)",
    "lines": "Purple",
    "line_count": 1,
    "ada": "Yes"
   }
  },
  {
   "type": "Feature",
   "geometry": {
    "type": "Point",
    "coordinates": [
     -87.681602,
     42.041655
    ]
   },
   "properties": {
    "station_id": "40690",
    "station_name": "Dempster",
    "descriptive_name": "Dempster (Purple Line)",
    "lines": "Purple",
    "line_count": 1,
    "ada": "No"
   }
  },
  {
   "type": "Feature",
   "geometry": {
    "type": "Point",
    "coordinates": [
     -87.751919,
     42.038951
    ]
   },
   "properties": {
    "station_id": "40140",
    "station_name": "Dempster-Skokie",
    "descriptive_name": "Dempster-Skokie  (Yellow Line)",
    "lines": "Yellow",
    "line_count": 1,
    "ada": "Yes"
   }
  },
  {
   "type": "Feature",
   "geometry": {
    "type": "Point",
    "coordinates": [
     -87.653131,
     41.932732
    ]
   },
   "properties": {
    "station_id": "40530",
    "station_name": "Diversey",
    "descriptive_name": "Diversey (Brown & Purple lines)",
    "lines": "Brown, Purple",
    "line_count": 2,
    "ada": "Yes"
   }
  },
  {
   "type": "Feature",
   "geometry": {
    "type": "Point",
    "coordinates": [
     -87.666496,
     41.903355
    ]
   },
   "properties": {
    "station_id": "40320",
    "station_name": "Division",
    "descriptive_name": "Division (Blue Line)",
    "lines": "Blue",
    "line_count": 1,
    "ada": "No"
   }
  },
  {
   "type": "Feature",
   "geometry": {
    "type": "Point",
    "coordinates": [
     -87.817318,
     41.874257
    ]
   },
   "properties": {
    "station_id": "40390",
    "station_name": "Forest Park",
    "descriptive_name": "Forest Park (Blue Line)",
    "lines": "Blue",
    "line_count": 1,
    "ada": "Yes"
   }
  },
  {
   "type": "Feature",
   "geometry": {
    "type": "Point",
    "coordinates": [
     -87.68356,
     42.05416
    ]
   },
   "properties": {
    "station_id": "40520",
    "station_name": "Foster",
    "descriptive_name": "Foster (Purple Line)",
    "lines": "Purple",
    "line_count": 1,
    "ada": "No"
   }
  },
  {
   "type": "Feature",
   "geometry": {
    "type": "Point",
    "coordinates": [
     -87.701644,
     41.966046
    ]
   },
   "properties": {
    "station_id": "40870",
    "station_name": "Francisco",
    "descriptive_name": "Francisco (Brown Line)",
    "lines": "Brown",
    "line_count": 1,
    "ada": "Yes"
   }
  },
  {
   "type": "Feature",
   "geometry": {
    "type": "Point",
    "coordinates": [
     -87.652866,
     41.925051
    ]
   },
   "properties": {
    "station_id": "41220",
    "station_name": "Fullerton",
    "descriptive_name": "Fullerton (Red, Brown & Purple lines)",
    "lines": "Red, Brown, Purple",
    "line_count": 3,
    "ada": "Yes"
   }
  },
  {
   "type": "Feature",
   "geometry": {
    "type": "Point",
    "coordinates": [
     -87.618327,
     41.795172
    ]
   },
   "properties": {
    "station_id": "40510",
    "station_name": "Garfield",
    "descriptive_name": "Garfield (Green Line)",
    "lines": "Green",
    "line_count": 1,
    "ada": "Yes"
   }
  },
  {
   "type": "Feature",
   "geometry": {
    "type": "Point",
    "coordinates": [
     -87.631157,
     41.79542
    ]
   },
   "properties": {
    "station_id": "41170",
    "station_name": "Garfield",
    "descriptive_name": "Garfield (Red Line)",
    "lines": "Red",
    "line_count": 1,
    "ada": "Yes"
   }
  },
  {
   "type": "Feature",
   "geometry": {
    "type": "Point",
    "coordinates": [
     -87.628021,
     41.891665
    ]
   },
   "properties": {
    "station_id": "40330",
    "station_name": "Grand",
    "descriptive_name": "Grand (Red Line)",
    "lines": "Red",
    "line_count": 1,
    "ada": "Yes"
   }
  },
  {
   "type": "Feature",
   "geometry": {
    "type": "Point",
    "coordinates": [
     -87.647578,
     41.891189
    ]
   },
   "properties": {
    "station_id": "40490",
    "station_name": "Grand",
    "descriptive_name": "Grand (Blue Line)",
    "lines": "Blue",
    "line_count": 1,
    "ada": "No"
   }
  },
  {
   "type": "Feature",
   "geometry": {
    "type": "Point",
    "coordinates": [
     -87.659202,
     41.993664
    ]
   },
   "properties": {
    "station_id": "40760",
    "station_name": "Granville",
    "descriptive_name": "Granville (Red Line)",
    "lines": "Red",
    "line_count": 1,
    "ada": "Yes"
   }
  },
  {
   "type": "Feature",
   "geometry": {
    "type": "Point",
    "coordinates": [
     -87.648088,
     41.84678
    ]
   },
   "properties": {
    "station_id": "41130",
    "station_name": "Halsted",
    "descriptive_name": "Halsted (Orange Line)",
    "lines": "Orange",
    "line_count": 1,
    "ada": "Yes"
   }
  },
  {
   "type": "Feature",
   "geometry": {
    "type": "Point",
    "coordinates": [
     -87.644244,
     41.778943
    ]
   },
   "properties": {
    "station_id": "40940",
    "station_name": "Halsted",
    "descriptive_name": "Halsted (Green Line)",
    "lines": "Green",
    "line_count": 1,
    "ada": "Yes"
   }
  },
  {
   "type": "Feature",
   "geometry": {
    "type": "Point",
    "coordinates": [
     -87.806961,
     41.87349
    ]
   },
   "properties": {
    "station_id": "40980",
    "station_name": "Harlem",
    "descriptive_name": "Harlem (Blue Line - Forest Park Branch)",
    "lines": "Blue",
    "line_count": 1,
    "ada": "No"
   }
  },
  {
   "type": "Feature",
   "geometry": {
    "type": "Point",
    "coordinates": [
     -87.8089,
     41.98227
    ]
   },
   "properties": {
    "station_id": "40750",
    "station_name": "Harlem",
    "descriptive_name": "Harlem (Blue Line - O'Hare Branch)",
    "lines": "Blue",
    "line_count": 1,
    "ada": "Yes"
   }
  },
  {
   "type": "Feature",
   "geometry": {
    "type": "Point",
    "coordinates": [
     -87.803176,
     41.886848
    ]
   },
   "properties": {
    "station_id": "40020",
    "station_name": "Harlem/Lake",
    "descriptive_name": "Harlem/Lake (Green Line)",
    "lines": "Green",
    "line_count": 1,
    "ada": "Yes"
   }
  },
  {
   "type": "Feature",
   "geometry": {
    "type": "Point",
    "coordinates": [
     -87.628196,
     41.876862
    ]
   },
   "properties": {
    "station_id": "40850",
    "station_name": "Harold Washington Library-State/Van Buren",
    "descriptive_name": "Harold Washington Library-State/Van Buren (Brown, Orange, Purple & Pink lines)",
    "lines": "Brown, Purple, Pink, Orange",
    "line_count": 4,
    "ada": "Yes"
   }
  },
  {
   "type": "Feature",
   "geometry": {
    "type": "Point",
    "coordinates": [
     -87.627479,
     41.874039
    ]
   },
   "properties": {
    "station_id": "41490",
    "station_name": "Harrison",
    "descriptive_name": "Harrison (Red Line)",
    "lines": "Red",
    "line_count": 1,
    "ada": "No"
   }
  },
  {
   "type": "Feature",
   "geometry": {
    "type": "Point",
    "coordinates": [
     -87.672892,
     42.019063
    ]
   },
   "properties": {
    "station_id": "40900",
    "station_name": "Howard",
    "descriptive_name": "Howard (Red, Purple & Yellow lines)",
    "lines": "Red, Purple, Yellow",
    "line_count": 3,
    "ada": "Yes"
   }
  },
  {
   "type": "Feature",
   "geometry": {
    "type": "Point",
    "coordinates": [
     -87.673932,
     41.875706
    ]
   },
   "properties": {
    "station_id": "40810",
    "station_name": "Illinois Medical District",
    "descriptive_name": "Illinois Medical District (Blue Line)",
    "lines": "Blue",
    "line_count": 1,
    "ada": "Yes"
   }
  },
  {
   "type": "Feature",
   "geometry": {
    "type": "Point",
    "coordinates": [
     -87.621371,
     41.821732
    ]
   },
   "properties": {
    "station_id": "40300",
    "station_name": "Indiana",
    "descriptive_name": "Indiana (Green Line)",
    "lines": "Green",
    "line_count": 1,
    "ada": "Yes"
   }
  },
  {
   "type": "Feature",
   "geometry": {
    "type": "Point",
    "coordinates": [
     -87.729229,
     41.952925
    ]
   },
   "properties": {
    "station_id": "40550",
    "station_name": "Irving Park",
    "descriptive_name": "Irving Park (Blue Line)",
    "lines": "Blue",
    "line_count": 1,
    "ada": "No"
   }
  },
  {
   "type": "Feature",
   "geometry": {
    "type": "Point",
    "coordinates": [
     -87.674868,
     41.954521
    ]
   },
   "properties": {
    "station_id": "41460",
    "station_name": "Irving Park",
    "descriptive_name": "Irving Park (Brown Line)",
    "lines": "Brown",
    "line_count": 1,
    "ada": "Yes"
   }
  },
  {
   "type": "Feature",
   "geometry": {
    "type": "Point",
    "coordinates": [
     -87.627596,
     41.878153
    ]
   },
   "properties": {
    "station_id": "40560",
    "station_name": "Jackson",
    "descriptive_name": "Jackson (Red Line)",
    "lines": "Red",
    "line_count": 1,
    "ada": "Yes"
   }
  },
  {
   "type": "Feature",
   "geometry": {
    "type": "Point",
    "coordinates": [
     -87.629296,
     41.878183
    ]
   },
   "properties": {
    "station_id": "40070",
    "station_name": "Jackson",
    "descriptive_name": "Jackson (Blue Line)",
    "lines": "Blue",
    "line_count": 1,
    "ada": "Yes"
   }
  },
  {
   "type": "Feature",
   "geometry": {
    "type": "Point",
    "coordinates": [
     -87.669092,
     42.015876
    ]
   },
   "properties": {
    "station_id": "41190",
    "station_name": "Jarvis",
    "descriptive_name": "Jarvis (Red Line)",
    "lines": "Red",
    "line_count": 1,
    "ada": "No"
   }
  },
  {
   "type": "Feature",
   "geometry": {
    "type": "Point",
    "coordinates": [
     -87.760892,
     41.970634
    ]
   },
   "properties": {
    "station_id": "41280",
    "station_name": "Jefferson Park",
    "descriptive_name": "Jefferson Park (Blue Line)",
    "lines": "Blue",
    "line_count": 1,
    "ada": "Yes"
   }
  },
  {
   "type": "Feature",
   "geometry": {
    "type": "Point",
    "coordinates": [
     -87.704406,
     41.804236
    ]
   },
   "properties": {
    "station_id": "41150",
    "station_name": "Kedzie",
    "descriptive_name": "Kedzie (Orange Line)",
    "lines": "Orange",
    "line_count": 1,
    "ada": "Yes"
   }
  },
  {
   "type": "Feature",
   "geometry": {
    "type": "Point",
    "coordinates": [
     -87.705408,
     41.853964
    ]
   },
   "properties": {
    "station_id": "41040",
    "station_name": "Kedzie",
    "descriptive_name": "Kedzie (Pink Line)",
    "lines": "Pink",
    "line_count": 1,
    "ada": "Yes"
   }
  },
  {
   "type": "Feature",
   "geometry": {
    "type": "Point",
    "coordinates": [
     -87.708821,
     41.965996
    ]
   },
   "properties": {
    "station_id": "41180",
    "station_name": "Kedzie",
    "descriptive_name": "Kedzie (Brown Line)",
    "lines": "Brown",
    "line_count": 1,
    "ada": "Yes"
   }
  },
  {
   "type": "Feature",
   "geometry": {
    "type": "Point",
    "coordinates": [
     -87.706155,
     41.884321
    ]
   },
   "properties": {
    "station_id": "41070",
    "station_name": "Kedzie",
    "descriptive_name": "Kedzie (Green Line)",
    "lines": "Green",
    "line_count": 1,
    "ada": "Yes"
   }
  },
  {
   "type": "Feature",
   "geometry": {
    "type": "Point",
    "coordinates": [
     -87.70604,
     41.874341
    ]
   },
   "properties": {
    "station_id": "40250",
    "station_name": "Kedzie-Homan",
    "descriptive_name": "Kedzie-Homan (Blue Line)",
    "lines": "Blue",
    "line_count": 1,
    "ada": "Yes"
   }
  },
  {
   "type": "Feature",
   "geometry": {
    "type": "Point",
    "coordinates": [
     -87.713065,
     41.967901
    ]
   },
   "properties": {
    "station_id": "41290",
    "station_name": "Kimball",
    "descriptive_name": "Kimball (Brown Line)",
    "lines": "Brown",
    "line_count": 1,
    "ada": "Yes"
   }
  },
  {
   "type": "Feature",
   "geometry": {
    "type": "Point",
    "coordinates": [
     -87.615546,
     41.78013
    ]
   },
   "properties": {
    "station_id": "41140",
    "station_name": "King Drive",
    "descriptive_name": "King Drive (Green Line)",
    "lines": "Green",
    "line_count": 1,
    "ada": "Yes"
   }
  },
  {
   "type": "Feature",
   "geometry": {
    "type": "Point",
    "coordinates": [
     -87.733258,
     41.853751
    ]
   },
   "properties": {
    "station_id": "40600",
    "station_name": "Kostner",
    "descriptive_name": "Kostner (Pink Line)",
    "lines": "Pink",
    "line_count": 1,
    "ada": "Yes"
   }
  },
  {
   "type": "Feature",
   "geometry": {
    "type": "Point",
    "coordinates": [
     -87.631722,
     41.875568
    ]
   },
   "properties": {
    "station_id": "41340",
    "station_name": "LaSalle",
    "descriptive_name": "LaSalle (Blue Line)",
    "lines": "Blue",
    "line_count": 1,
    "ada": "No"
   }
  },
  {
   "type": "Feature",
   "geometry": {
    "type": "Point",
    "coordinates": [
     -87.631739,
     41.8768
    ]
   },
   "properties": {
    "station_id": "40160",
    "station_name": "LaSalle/Van Buren",
    "descriptive_name": "LaSalle/Van Buren (Brown, Orange, Purple & Pink lines)",
    "lines": "Brown, Purple, Pink, Orange",
    "line_count": 4,
    "ada": "No"
   }
  },
  {
   "type": "Feature",
   "geometry": {
    "type": "Point",
    "coordinates": [
     -87.627813,
     41.884809
    ]
   },
   "properties": {
    "station_id": "41660",
    "station_name": "Lake",
    "descriptive_name": "Lake (Red Line)",
    "lines": "Red",
    "line_count": 1,
    "ada": "Yes"
   }
  },
  {
   "type": "Feature",
   "geometry": {
    "type": "Point",
    "coordinates": [
     -87.754986,
     41.887163
    ]
   },
   "properties": {
    "station_id": "40700",
    "station_name": "Laramie",
    "descriptive_name": "Laramie (Green Line)",
    "lines": "Green",
    "line_count": 1,
    "ada": "Yes"
   }
  },
  {
   "type": "Feature",
   "geometry": {
    "type": "Point",
    "coordinates": [
     -87.658493,
     41.969139
    ]
   },
   "properties": {
    "station_id": "40770",
    "station_name": "Lawrence",
    "descriptive_name": "Lawrence (Red Line)",
    "lines": "Red",
    "line_count": 1,
    "ada": "Yes"
   }
  },
  {
   "type": "Feature",
   "geometry": {
    "type": "Point",
    "coordinates": [
     -87.69073,
     42.073153
    ]
   },
   "properties": {
    "station_id": "41050",
    "station_name": "Linden",
    "descriptive_name": "Linden (Purple Line)",
    "lines": "Purple",
    "line_count": 1,
    "ada": "Yes"
   }
  },
  {
   "type": "Feature",
   "geometry": {
    "type": "Point",
    "coordinates": [
     -87.708541,
     41.929728
    ]
   },
   "properties": {
    "station_id": "41020",
    "station_name": "Logan Square",
    "descriptive_name": "Logan Square (Blue Line)",
    "lines": "Blue",
    "line_count": 1,
    "ada": "Yes"
   }
  },
  {
   "type": "Feature",
   "geometry": {
    "type": "Point",
    "coordinates": [
     -87.661061,
     42.001073
    ]
   },
   "properties": {
    "station_id": "41300",
    "station_name": "Loyola",
    "descriptive_name": "Loyola (Red Line)",
    "lines": "Red",
    "line_count": 1,
    "ada": "Yes"
   }
  },
  {
   "type": "Feature",
   "geometry": {
    "type": "Point",
    "coordinates": [
     -87.679538,
     42.033456
    ]
   },
   "properties": {
    "station_id": "40270",
    "station_name": "Main",
    "descriptive_name": "Main (Purple Line)",
    "lines": "Purple",
    "line_count": 1,
    "ada": "No"
   }
  },
  {
   "type": "Feature",
   "geometry": {
    "type": "Point",
    "coordinates": [
     -87.633924,
     41.888969
    ]
   },
   "properties": {
    "station_id": "40460",
    "station_name": "Merchandise Mart",
    "descriptive_name": "Merchandise Mart (Brown & Purple lines)",
    "lines": "Brown, Purple",
    "line_count": 2,
    "ada": "Yes"
   }
  },
  {
   "type": "Feature",
   "geometry": {
    "type": "Point",
    "coordinates": [
     -87.737875,
     41.78661
    ]
   },
   "properties": {
    "station_id": "40930",
    "station_name": "Midway",
    "descriptive_name": "Midway (Orange Line)",
    "lines": "Orange",
    "line_count": 1,
    "ada": "Yes"
   }
  },
  {
   "type": "Feature",
   "geometry": {
    "type": "Point",
    "coordinates": [
     -87.627696,
     41.880745
    ]
   },
   "properties": {
    "station_id": "41090",
    "station_name": "Monroe",
    "descriptive_name": "Monroe (Red Line)",
    "lines": "Red",
    "line_count": 1,
    "ada": "No"
   }
  },
  {
   "type": "Feature",
   "geometry": {
    "type": "Point",
    "coordinates": [
     -87.629378,
     41.880703
    ]
   },
   "properties": {
    "station_id": "40790",
    "station_name": "Monroe",
    "descriptive_name": "Monroe (Blue Line)",
    "lines": "Blue",
    "line_count": 1,
    "ada": "No"
   }
  },
  {
   "type": "Feature",
   "geometry": {
    "type": "Point",
    "coordinates": [
     -87.675047,
     41.961756
    ]
   },
   "properties": {
    "station_id": "41500",
    "station_name": "Montrose",
    "descriptive_name": "Montrose (Brown Line)",
    "lines": "Brown",
    "line_count": 1,
    "ada": "Yes"
   }
  },
  {
   "type": "Feature",
   "geometry": {
    "type": "Point",
    "coordinates": [
     -87.743574,
     41.961539
    ]
   },
   "properties": {
    "station_id": "41330",
    "station_name": "Montrose",
    "descriptive_name": "Montrose (Blue Line)",
    "lines": "Blue",
    "line_count": 1,
    "ada": "No"
   }
  },
  {
   "type": "Feature",
   "geometry": {
    "type": "Point",
    "coordinates": [
     -87.652193,
     41.885586
    ]
   },
   "properties": {
    "station_id": "41510",
    "station_name": "Morgan",
    "descriptive_name": "Morgan (Green & Pink lines)",
    "lines": "Green, Pink",
    "line_count": 2,
    "ada": "Yes"
   }
  },
  {
   "type": "Feature",
   "geometry": {
    "type": "Point",
    "coordinates": [
     -87.665909,
     42.008362
    ]
   },
   "properties": {
    "station_id": "40100",
    "station_name": "Morse",
    "descriptive_name": "Morse (Red Line)",
    "lines": "Red",
    "line_count": 1,
    "ada": "No"
   }
  },
  {
   "type": "Feature",
   "geometry": {
    "type": "Point",
    "coordinates": [
     -87.649177,
     41.910655
    ]
   },
   "properties": {
    "station_id": "40650",
    "station_name": "North/Clybourn",
    "descriptive_name": "North/Clybourn (Red Line)",
    "lines": "Red",
    "line_count": 1,
    "ada": "No"
   }
  },
  {
   "type": "Feature",
   "geometry": {
    "type": "Point",
    "coordinates": [
     -87.683337,
     42.058282
    ]
   },
   "properties": {
    "station_id": "40400",
    "station_name": "Noyes",
    "descriptive_name": "Noyes (Purple Line)",
    "lines": "Purple",
    "line_count": 1,
    "ada": "No"
   }
  },
  {
   "type": "Feature",
   "geometry": {
    "type": "Point",
    "coordinates": [
     -87.904223,
     41.977665
    ]
   },
   "properties": {
    "station_id": "40890",
    "station_name": "O'Hare",
    "descriptive_name": "O'Hare (Blue Line)",
    "lines": "Blue",
    "line_count": 1,
    "ada": "Yes"
   }
  },
  {
   "type": "Feature",
   "geometry": {
    "type": "Point",
    "coordinates": [
     -87.791602,
     41.872108
    ]
   },
   "properties": {
    "station_id": "40180",
    "station_name": "Oak Park",
    "descriptive_name": "Oak Park (Blue Line)",
    "lines": "Blue",
    "line_count": 1,
    "ada": "No"
   }
  },
  {
   "type": "Feature",
   "geometry": {
    "type": "Point",
    "coordinates": [
     -87.793783,
     41.886988
    ]
   },
   "properties": {
    "station_id": "41350",
    "station_name": "Oak Park",
    "descriptive_name": "Oak Park (Green Line)",
    "lines": "Green",
    "line_count": 1,
    "ada": "No"
   }
  },
  {
   "type": "Feature",
   "geometry": {
    "type": "Point",
    "coordinates": [
     -87.747221,
     42.026243
    ]
   },
   "properties": {
    "station_id": "41680",
    "station_name": "Oakton-Skokie",
    "descriptive_name": "Oakton-Skokie (Yellow Line)",
    "lines": "Yellow",
    "line_count": 1,
    "ada": "Yes"
   }
  },
  {
   "type": "Feature",
   "geometry": {
    "type": "Point",
    "coordinates": [
     -87.670907,
     41.943623
    ]
   },
   "properties": {
    "station_id": "41310",
    "station_name": "Paulina",
    "descriptive_name": "Paulina (Brown Line)",
    "lines": "Brown",
    "line_count": 1,
    "ada": "Yes"
   }
  },
  {
   "type": "Feature",
   "geometry": {
    "type": "Point",
    "coordinates": [
     -87.66953,
     41.871551
    ]
   },
   "properties": {
    "station_id": "41030",
    "station_name": "Polk",
    "descriptive_name": "Polk (Pink Line)",
    "lines": "Pink",
    "line_count": 1,
    "ada": "Yes"
   }
  },
  {
   "type": "Feature",
   "geometry": {
    "type": "Point",
    "coordinates": [
     -87.725404,
     41.885412
    ]
   },
   "properties": {
    "station_id": "40030",
    "station_name": "Pulaski",
    "descriptive_name": "Pulaski (Green Line)",
    "lines": "Green",
    "line_count": 1,
    "ada": "Yes"
   }
  },
  {
   "type": "Feature",
   "geometry": {
    "type": "Point",
    "coordinates": [
     -87.725663,
     41.873797
    ]
   },
   "properties": {
    "station_id": "40920",
    "station_name": "Pulaski",
    "descriptive_name": "Pulaski (Blue Line)",
    "lines": "Blue",
    "line_count": 1,
    "ada": "No"
   }
  },
  {
   "type": "Feature",
   "geometry": {
    "type": "Point",
    "coordinates": [
     -87.724493,
     41.799756
    ]
   },
   "properties": {
    "station_id": "40960",
    "station_name": "Pulaski",
    "descriptive_name": "Pulaski (Orange Line)",
    "lines": "Orange",
    "line_count": 1,
    "ada": "Yes"
   }
  },
  {
   "type": "Feature",
   "geometry": {
    "type": "Point",
    "coordinates": [
     -87.724311,
     41.853732
    ]
   },
   "properties": {
    "station_id": "40150",
    "station_name": "Pulaski",
    "descriptive_name": "Pulaski (Pink Line)",
    "lines": "Pink",
    "line_count": 1,
    "ada": "Yes"
   }
  },
  {
   "type": "Feature",
   "geometry": {
    "type": "Point",
    "coordinates": [
     -87.63374,
     41.878723
    ]
   },
   "properties": {
    "station_id": "40040",
    "station_name": "Quincy/Wells",
    "descriptive_name": "Quincy/Wells (Brown, Orange, Purple & Pink lines)",
    "lines": "Brown, Purple, Pink, Orange",
    "line_count": 4,
    "ada": "Yes"
   }
  },
  {
   "type": "Feature",
   "geometry": {
    "type": "Point",
    "coordinates": [
     -87.659458,
     41.87592
    ]
   },
   "properties": {
    "station_id": "40470",
    "station_name": "Racine",
    "descriptive_name": "Racine (Blue Line)",
    "lines": "Blue",
    "line_count": 1,
    "ada": "No"
   }
  },
  {
   "type": "Feature",
   "geometry": {
    "type": "Point",
    "coordinates": [
     -87.783661,
     41.887159
    ]
   },
   "properties": {
    "station_id": "40610",
    "station_name": "Ridgeland",
    "descriptive_name": "Ridgeland (Green Line)",
    "lines": "Green",
    "line_count": 1,
    "ada": "No"
   }
  },
  {
   "type": "Feature",
   "geometry": {
    "type": "Point",
    "coordinates": [
     -87.6941,
     41.966115
    ]
   },
   "properties": {
    "station_id": "41010",
    "station_name": "Rockwell",
    "descriptive_name": "Rockwell (Brown Line)",
    "lines": "Brown",
    "line_count": 1,
    "ada": "Yes"
   }
  },
  {
   "type": "Feature",
   "geometry": {
    "type": "Point",
    "coordinates": [
     -87.626996,
     41.867386
    ]
   },
   "properties": {
    "station_id": "41400",
    "station_name": "Roosevelt",
    "descriptive_name": "Roosevelt (Red, Orange & Green lines)",
    "lines": "Red, Green, Orange",
    "line_count": 3,
    "ada": "Yes"
   }
  },
  {
   "type": "Feature",
   "geometry": {
    "type": "Point",
    "coordinates": [
     -87.859388,
     41.983507
    ]
   },
   "properties": {
    "station_id": "40820",
    "station_name": "Rosemont",
    "descriptive_name": "Rosemont (Blue Line)",
    "lines": "Blue",
    "line_count": 1,
    "ada": "Yes"
   }
  },
  {
   "type": "Feature",
   "geometry": {
    "type": "Point",
    "coordinates": [
     -87.639302,
     41.910409
    ]
   },
   "properties": {
    "station_id": "40800",
    "station_name": "Sedgwick",
    "descriptive_name": "Sedgwick (Brown & Purple lines)",
    "lines": "Brown, Purple",
    "line_count": 2,
    "ada": "Yes"
   }
  },
  {
   "type": "Feature",
   "geometry": {
    "type": "Point",
    "coordinates": [
     -87.654929,
     41.953775
    ]
   },
   "properties": {
    "station_id": "40080",
    "station_name": "Sheridan",
    "descriptive_name": "Sheridan (Red Line)",
    "lines": "Red",
    "line_count": 1,
    "ada": "No"
   }
  },
  {
   "type": "Feature",
   "geometry": {
    "type": "Point",
    "coordinates": [
     -87.678329,
     42.027612
    ]
   },
   "properties": {
    "station_id": "40840",
    "station_name": "South Boulevard",
    "descriptive_name": "South Boulevard (Purple Line)",
    "lines": "Purple",
    "line_count": 1,
    "ada": "No"
   }
  },
  {
   "type": "Feature",
   "geometry": {
    "type": "Point",
    "coordinates": [
     -87.663619,
     41.943744
    ]
   },
   "properties": {
    "station_id": "40360",
    "station_name": "Southport",
    "descriptive_name": "Southport (Brown Line)",
    "lines": "Brown",
    "line_count": 1,
    "ada": "Yes"
   }
  },
  {
   "type": "Feature",
   "geometry": {
    "type": "Point",
    "coordinates": [
     -87.630636,
     41.831191
    ]
   },
   "properties": {
    "station_id": "40190",
    "station_name": "Sox-35th",
    "descriptive_name": "Sox-35th (Red Line)",
    "lines": "Red",
    "line_count": 1,
    "ada": "Yes"
   }
  },
  {
   "type": "Feature",
   "geometry": {
    "type": "Point",
    "coordinates": [
     -87.627835,
     41.88574
    ]
   },
   "properties": {
    "station_id": "40260",
    "station_name": "State/Lake",
    "descriptive_name": "State/Lake (Brown, Green, Orange, Pink & Purple lines)",
    "lines": "Green, Brown, Purple, Pink, Orange",
    "line_count": 5,
    "ada": "No"
   }
  },
  {
   "type": "Feature",
   "geometry": {
    "type": "Point",
    "coordinates": [
     -87.659076,
     41.990259
    ]
   },
   "properties": {
    "station_id": "40880",
    "station_name": "Thorndale",
    "descriptive_name": "Thorndale (Red Line)",
    "lines": "Red",
    "line_count": 1,
    "ada": "No"
   }
  },
  {
   "type": "Feature",
   "geometry": {
    "type": "Point",
    "coordinates": [
     -87.649707,
     41.875474
    ]
   },
   "properties": {
    "station_id": "40350",
    "station_name": "UIC-Halsted",
    "descriptive_name": "UIC-Halsted (Blue Line)",
    "lines": "Blue",
    "line_count": 1,
    "ada": "Yes"
   }
  },
  {
   "type": "Feature",
   "geometry": {
    "type": "Point",
    "coordinates": [
     -87.62944,
     41.883164
    ]
   },
   "properties": {
    "station_id": "40370",
    "station_name": "Washington",
    "descriptive_name": "Washington (Blue Line)",
    "lines": "Blue",
    "line_count": 1,
    "ada": "No"
   }
  },
  {
   "type": "Feature",
   "geometry": {
    "type": "Point",
    "coordinates": [
     -87.626189,
     41.88322
    ]
   },
   "properties": {
    "station_id": "41700",
    "station_name": "Washington/Wabash",
    "descriptive_name": "Washington/Wabash (Brown, Green, Orange, Purple & Pink lines)",
    "lines": "Green, Brown, Purple, Pink, Orange",
    "line_count": 5,
    "ada": "Yes"
   }
  },
  {
   "type": "Feature",
   "geometry": {
    "type": "Point",
    "coordinates": [
     -87.63378,
     41.882695
    ]
   },
   "properties": {
    "station_id": "40730",
    "station_name": "Washington/Wells",
    "descriptive_name": "Washington/Wells (Brown, Orange, Purple & Pink lines)",
    "lines": "Brown, Purple, Pink, Orange",
    "line_count": 4,
    "ada": "Yes"
   }
  },
  {
   "type": "Feature",
   "geometry": {
    "type": "Point",
    "coordinates": [
     -87.653266,
     41.936033
    ]
   },
   "properties": {
    "station_id": "41210",
    "station_name": "Wellington",
    "descriptive_name": "Wellington (Brown & Purple lines)",
    "lines": "Brown, Purple",
    "line_count": 2,
    "ada": "Yes"
   }
  },
  {
   "type": "Feature",
   "geometry": {
    "type": "Point",
    "coordinates": [
     -87.688436,
     41.875478
    ]
   },
   "properties": {
    "station_id": "40220",
    "station_name": "Western",
    "descriptive_name": "Western (Blue Line - Forest Park Branch)",
    "lines": "Blue",
    "line_count": 1,
    "ada": "No"
   }
  },
  {
   "type": "Feature",
   "geometry": {
    "type": "Point",
    "coordinates": [
     -87.685129,
     41.854225
    ]
   },
   "properties": {
    "station_id": "40740",
    "station_name": "Western",
    "descriptive_name": "Western (Pink Line)",
    "lines": "Pink",
    "line_count": 1,
    "ada": "Yes"
   }
  },
  {
   "type": "Feature",
   "geometry": {
    "type": "Point",
    "coordinates": [
     -87.687364,
     41.916157
    ]
   },
   "properties": {
    "station_id": "40670",
    "station_name": "Western",
    "descriptive_name": "Western (Blue Line - O'Hare Branch)",
    "lines": "Blue",
    "line_count": 1,
    "ada": "Yes"
   }
  },
  {
   "type": "Feature",
   "geometry": {
    "type": "Point",
    "coordinates": [
     -87.688502,
     41.966163
    ]
   },
   "properties": {
    "station_id": "41480",
    "station_name": "Western",
    "descriptive_name": "Western (Brown Line)",
    "lines": "Brown",
    "line_count": 1,
    "ada": "Yes"
   }
  },
  {
   "type": "Feature",
   "geometry": {
    "type": "Point",
    "coordinates": [
     -87.684019,
     41.804546
    ]
   },
   "properties": {
    "station_id": "40310",
    "station_name": "Western",
    "descriptive_name": "Western (Orange Line)",
    "lines": "Orange",
    "line_count": 1,
    "ada": "Yes"
   }
  },
  {
   "type": "Feature",
   "geometry": {
    "type": "Point",
    "coordinates": [
     -87.657588,
     41.964273
    ]
   },
   "properties": {
    "station_id": "40540",
    "station_name": "Wilson",
    "descriptive_name": "Wilson (Red & Purple lines)",
    "lines": "Red, Purple",
    "line_count": 2,
    "ada": "Yes"
   }
  }
 ]
}